{
    "links": {
        "self": "http://www.neowsapp.com/rest/v1/neo/3878587?api_key=iIulBulltgU6a56xZRHN4H3l9WmuAYTsLGpBGhQ2"
    },
    "id": "3878587",
    "neo_reference_id": "3878587",
    "name": "(2019 TV2)",
    "designation": "2019 TV2",
    "nasa_jpl_url": "http://ssd.jpl.nasa.gov/sbdb.cgi?sstr=3878587",
    "absolute_magnitude_h": 23.0,
    "estimated_diameter": {
        "kilometers": {
            "estimated_diameter_min": 0.0667659413,
            "estimated_diameter_max": 0.1492931834
        },
        "meters": {
            "estimated_diameter_min": 66.7659413495,
            "estimated_diameter_max": 149.2931834393
        },
        "miles": {
            "estimated_diameter_min": 0.0414864197,
            "estimated_diameter_max": 0.0927664547
        },
        "feet": {
            "estimated_diameter_min": 219.0483710172,
            "estimated_diameter_max": 489.807047955
        }
    },
    "is_potentially_hazardous_asteroid": false,
    "close_approach_data": [
        {
            "close_approach_date": "2019-09-26",
            "close_approach_date_full": "2019-Sep-26 19:49",
            "epoch_date_close_approach": 1569527340000,
            "relative_velocity": {
                "kilometers_per_second": "9.3406584797",
                "kilometers_per_hour": "33626.370526879",
                "miles_per_hour": "20894.1189532154"
            },
            "miss_distance": {
                "astronomical": "0.0736203222",
                "lunar": "28.6383053358",
                "kilometers": "11013443.389833714",
                "miles": "6843436.3880806932"
            },
            "orbiting_body": "Earth"
        },
        {
            "close_approach_date": "2190-07-29",
            "close_approach_date_full": "2190-Jul-29 08:01",
            "epoch_date_close_approach": 6960672060000,
            "relative_velocity": {
                "kilometers_per_second": "10.8344106791",
                "kilometers_per_hour": "39003.8784448871",
                "miles_per_hour": "24235.4932481578"
            },
            "miss_distance": {
                "astronomical": "0.127801227",
                "lunar": "49.714677303",
                "kilometers": "19118791.34258649",
                "miles": "11879866.063573962"
            },
            "orbiting_body": "Earth"
        },
        {
            "close_approach_date": "2197-11-01",
            "close_approach_date_full": "2197-Nov-01 15:22",
            "epoch_date_close_approach": 7189831320000,
            "relative_velocity": {
                "kilometers_per_second": "20.2609085932",
                "kilometers_per_hour": "72939.2709353486",
                "miles_per_hour": "45321.6264320226"
            },
            "miss_distance": {
                "astronomical": "0.35168048",
                "lunar": "136.80370672",
                "kilometers": "52610650.7285776",
                "miles": "32690742.47286688"
            },
            "orbiting_body": "Earth"
        }
    ],
    "orbital_data": {
        "orbit_id": "8",
        "orbit_determination_date": "2019-11-01 08:13:01",
        "first_observation_date": "2019-10-05",
        "last_observation_date": "2019-10-30",
        "data_arc_in_days": 25,
        "observations_used": 59,
        "orbit_uncertainty": "7",
        "minimum_orbit_intersection": ".0725669",
        "jupiter_tisserand_invariant": "3.318",
        "epoch_osculation": "2459000.5",
        "eccentricity": ".5772411692304152",
        "semi_major_axis": "2.332424666572721",
        "inclination": "6.022368414597548",
        "ascending_node_longitude": "45.05651772950672",
        "orbital_period": "1301.097568797966",
        "perihelion_distance": ".9860531248984219",
        "perihelion_argument": "293.4110760667581",
        "aphelion_distance": "3.678796208247019",
        "perihelion_time": "2458732.951781976239",
        "mean_anomaly": "74.02777531706394",
        "mean_motion": ".2766894725140331",
        "equinox": "J2000",
        "orbit_class": {
            "orbit_class_type": "APO",
            "orbit_class_description": "Near-Earth asteroid orbits which cross the Earth’s orbit similar to that of 1862 Apollo",
            "orbit_class_range": "a (semi-major axis) > 1.0 AU; q (perihelion) < 1.017 AU"
        }
    },
    "is_sentry_object": false
}